{"type": "FeatureCollection", "features": [ {"type": "Feature", "properties": {"norad_id": 58662, "name": "TIANMU-1 21", "group": "weather", "lat": -41.09032727072176, "lon": -78.6416325619016, "alt_km": 473.14223397824753, "timestamp": "2025-12-20T11:30:28.013958+00:00", "meta": {"OBJECT_NAME": "TIANMU-1 21", "OBJECT_ID": "2023-208C", "EPOCH": "2025-12-20T05:50:24.167328", "MEAN_MOTION": 15.3170174, "ECCENTRICITY": 0.0006196, "INCLINATION": 97.4381, "RA_OF_ASC_NODE": 107.6633, "ARG_OF_PERICENTER": 228.6207, "MEAN_ANOMALY": 131.4502, "EPHEMERIS_TYPE": 0, "CLASSIFICATION_TYPE": "U", "NORAD_CAT_ID": 58662, "ELEMENT_SET_NO": 999, "REV_AT_EPOCH": 11014, "BSTAR": 0.00025984, "MEAN_MOTION_DOT": 7.88e-05, "MEAN_MOTION_DDOT": 0}, "tle": {"line1": "1 58662U 23208C   25354.24333527  .00007880  00000+0  25984-3 0  9993", "line2": "2 58662  97.4381 107.6633 0006196 228.6207 131.4502 15.31701740110148"}}, "geometry": {"type": "Point", "coordinates": [-78.6416325619016, -41.09032727072176]}}, {"type": "Feature", "properties": {"norad_id": 58663, "name": "TIANMU-1 22", "group": "weather", "lat": 33.00034769218838, "lon": 100.68993973625146, "alt_km": 482.25770948963236, "timestamp": "2025-12-20T11:30:28.013969+00:00", "meta": {"OBJECT_NAME": "TIANMU-1 22", "OBJECT_ID": "2023-208D", "EPOCH": "2025-12-20T03:30:08.949888", "MEAN_MOTION": 15.27721315, "ECCENTRICITY": 0.0002735, "INCLINATION": 97.4389, "RA_OF_ASC_NODE": 105.2247, "ARG_OF_PERICENTER": 247.8778, "MEAN_ANOMALY": 112.2171, "EPHEMERIS_TYPE": 0, "CLASSIFICATION_TYPE": "U", "NORAD_CAT_ID": 58663, "ELEMENT_SET_NO": 999, "REV_AT_EPOCH": 10996, "BSTAR": 0.00022853, "MEAN_MOTION_DOT": 6.115e-05, "MEAN_MOTION_DDOT": 0}, "tle": {"line1": "1 58663U 23208D   25354.14593692  .00006115  00000+0  22853-3 0  9996", "line2": "2 58663  97.4389 105.2247 0002735 247.8778 112.2171 15.27721315109965"}}, "geometry": {"type": "Point", "coordinates": [100.68993973625146, 33.00034769218838]}}, {"type": "Feature", "properties": {"norad_id": 58700, "name": "TIANMU-1 15", "group": "weather", "lat": 72.14729102008148, "lon": 151.90573951631643, "alt_km": 489.4315705006329, "timestamp": "2025-12-20T11:30:28.013979+00:00", "meta": {"OBJECT_NAME": "TIANMU-1 15", "OBJECT_ID": "2024-004A", "EPOCH": "2025-12-20T04:53:02.641920", "MEAN_MOTION": 15.24498043, "ECCENTRICITY": 0.0005939, "INCLINATION": 97.4622, "RA_OF_ASC_NODE": 175.6448, "ARG_OF_PERICENTER": 258.5559, "MEAN_ANOMALY": 101.5012, "EPHEMERIS_TYPE": 0, "CLASSIFICATION_TYPE": "U", "NORAD_CAT_ID": 58700, "ELEMENT_SET_NO": 999, "REV_AT_EPOCH": 10848, "BSTAR": 0.0001994, "MEAN_MOTION_DOT": 4.831e-05, "MEAN_MOTION_DDOT": 0}, "tle": {"line1": "1 58700U 24004A   25354.20350280  .00004831  00000+0  19940-3 0  9990", "line2": "2 58700  97.4622 175.6448 0005939 258.5559 101.5012 15.24498043108483"}}, "geometry": {"type": "Point", "coordinates": [151.90573951631643, 72.14729102008148]}}, {"type": "Feature", "properties": {"norad_id": 58701, "name": "TIANMU-1 16", "group": "weather", "lat": 23.702016163020506, "lon": -1.4019619598597324, "alt_km": 492.5399752807416, "timestamp": "2025-12-20T11:30:28.013989+00:00", "meta": {"OBJECT_NAME": "TIANMU-1 16", "OBJECT_ID": "2024-004B", "EPOCH": "2025-12-20T04:31:27.562080", "MEAN_MOTION": 15.24525623, "ECCENTRICITY": 0.0004311, "INCLINATION": 97.456, "RA_OF_ASC_NODE": 175.0125, "ARG_OF_PERICENTER": 262.0411, "MEAN_ANOMALY": 98.0337, "EPHEMERIS_TYPE": 0, "CLASSIFICATION_TYPE": "U", "NORAD_CAT_ID": 58701, "ELEMENT_SET_NO": 999, "REV_AT_EPOCH": 10848, "BSTAR": 0.00020875, "MEAN_MOTION_DOT": 5.064e-05, "MEAN_MOTION_DDOT": 0}, "tle": {"line1": "1 58701U 24004B   25354.18851345  .00005064  00000+0  20875-3 0  9994", "line2": "2 58701  97.4560 175.0125 0004311 262.0411  98.0337 15.24525623108486"}}, "geometry": {"type": "Point", "coordinates": [-1.4019619598597324, 23.702016163020506]}}, {"type": "Feature", "properties": {"norad_id": 58702, "name": "TIANMU-1 17", "group": "weather", "lat": -60.898098955370855, "lon": -17.898125116669426, "alt_km": 497.02149877239026, "timestamp": "2025-12-20T11:30:28.014000+00:00", "meta": {"OBJECT_NAME": "TIANMU-1 17", "OBJECT_ID": "2024-004C", "EPOCH": "2025-12-20T04:08:58.165152", "MEAN_MOTION": 15.24569198, "ECCENTRICITY": 0.0003504, "INCLINATION": 97.4594, "RA_OF_ASC_NODE": 175.4109, "ARG_OF_PERICENTER": 264.3217, "MEAN_ANOMALY": 95.7621, "EPHEMERIS_TYPE": 0, "CLASSIFICATION_TYPE": "U", "NORAD_CAT_ID": 58702, "ELEMENT_SET_NO": 999, "REV_AT_EPOCH": 10847, "BSTAR": 0.00019788, "MEAN_MOTION_DOT": 4.803e-05, "MEAN_MOTION_DDOT": 0}, "tle": {"line1": "1 58702U 24004C   25354.17289543  .00004803  00000+0  19788-3 0  9990", "line2": "2 58702  97.4594 175.4109 0003504 264.3217  95.7621 15.24569198108476"}}, "geometry": {"type": "Point", "coordinates": [-17.898125116669426, -60.898098955370855]}}, {"type": "Feature", "properties": {"norad_id": 58703, "name": "TIANMU-1 18", "group": "weather", "lat": -26.966408975254428, "lon": 179.7362747550709, "alt_km": 497.32637280540257, "timestamp": "2025-12-20T11:30:28.014028+00:00", "meta": {"OBJECT_NAME": "TIANMU-1 18", "OBJECT_ID": "2024-004D", "EPOCH": "2025-12-20T05:19:33.404160", "MEAN_MOTION": 15.24554178, "ECCENTRICITY": 0.0002866, "INCLINATION": 97.4612, "RA_OF_ASC_NODE": 175.6565, "ARG_OF_PERICENTER": 262.1734, "MEAN_ANOMALY": 97.9178, "EPHEMERIS_TYPE": 0, "CLASSIFICATION_TYPE": "U", "NORAD_CAT_ID": 58703, "ELEMENT_SET_NO": 999, "REV_AT_EPOCH": 10848, "BSTAR": 0.00018708, "MEAN_MOTION_DOT": 4.534e-05, "MEAN_MOTION_DDOT": 0}, "tle": {"line1": "1 58703U 24004D   25354.22191440  .00004534  00000+0  18708-3 0  9997", "line2": "2 58703  97.4612 175.6565 0002866 262.1734  97.9178 15.24554178108480"}}, "geometry": {"type": "Point", "coordinates": [179.7362747550709, -26.966408975254428]}}, {"type": "Feature", "properties": {"norad_id": 58990, "name": "INSAT-3DS", "group": "weather", "lat": -0.04410977314181755, "lon": -15.963152508189301, "alt_km": 35784.5715938383, "timestamp": "2025-12-20T11:30:28.014048+00:00", "meta": {"OBJECT_NAME": "INSAT-3DS", "OBJECT_ID": "2024-033A", "EPOCH": "2025-12-20T03:20:57.892416", "MEAN_MOTION": 1.00272312, "ECCENTRICITY": 0.0001082, "INCLINATION": 0.0528, "RA_OF_ASC_NODE": 105.6827, "ARG_OF_PERICENTER": 165.9506, "MEAN_ANOMALY": 309.69, "EPHEMERIS_TYPE": 0, "CLASSIFICATION_TYPE": "U", "NORAD_CAT_ID": 58990, "ELEMENT_SET_NO": 999, "REV_AT_EPOCH": 4527, "BSTAR": 0, "MEAN_MOTION_DOT": -1.32e-06, "MEAN_MOTION_DDOT": 0}, "tle": {"line1": "1 58990U 24033A   25354.13955894 -.00000132  00000+0  00000+0 0  9991", "line2": "2 58990   0.0528 105.6827 0001082 165.9506 309.6900  1.00272312 45273"}}, "geometry": {"type": "Point", "coordinates": [-15.963152508189301, -0.04410977314181755]}}, {"type": "Feature", "properties": {"norad_id": 59051, "name": "METEOR-M2 4", "group": "weather", "lat": -7.205251630808683, "lon": 130.1610537325707, "alt_km": 825.129704097928, "timestamp": "2025-12-20T11:30:28.014071+00:00", "meta": {"OBJECT_NAME": "METEOR-M2 4", "OBJECT_ID": "2024-039A", "EPOCH": "2025-12-20T03:52:38.265600", "MEAN_MOTION": 14.22402328, "ECCENTRICITY": 0.000664, "INCLINATION": 98.6777, "RA_OF_ASC_NODE": 310.9544, "ARG_OF_PERICENTER": 336.7585, "MEAN_ANOMALY": 23.3292, "EPHEMERIS_TYPE": 0, "CLASSIFICATION_TYPE": "U", "NORAD_CAT_ID": 59051, "ELEMENT_SET_NO": 999, "REV_AT_EPOCH": 9381, "BSTAR": 1.8571e-05, "MEAN_MOTION_DOT": -2e-08, "MEAN_MOTION_DDOT": 0}, "tle": {"line1": "1 59051U 24039A   25354.16155400 -.00000002  00000+0  18571-4 0  9997", "line2": "2 59051  98.6777 310.9544 0006640 336.7585  23.3292 14.22402328 93815"}}, "geometry": {"type": "Point", "coordinates": [130.1610537325707, -7.205251630808683]}}, {"type": "Feature", "properties": {"norad_id": 60133, "name": "GOES 19", "group": "weather", "lat": 0.0018423170463316692, "lon": -173.27963893746787, "alt_km": 35789.0982177939, "timestamp": "2025-12-20T11:30:28.014089+00:00", "meta": {"OBJECT_NAME": "GOES 19", "OBJECT_ID": "2024-119A", "EPOCH": "2025-12-20T02:36:02.195136", "MEAN_MOTION": 1.0027054, "ECCENTRICITY": 0.0001022, "INCLINATION": 0.0189, "RA_OF_ASC_NODE": 167.8316, "ARG_OF_PERICENTER": 146.8381, "MEAN_ANOMALY": 98.0979, "EPHEMERIS_TYPE": 0, "CLASSIFICATION_TYPE": "U", "NORAD_CAT_ID": 60133, "ELEMENT_SET_NO": 999, "REV_AT_EPOCH": 516, "BSTAR": 0, "MEAN_MOTION_DOT": -2.24e-06, "MEAN_MOTION_DDOT": 0}, "tle": {"line1": "1 60133U 24119A   25354.10835874 -.00000224  00000+0  00000+0 0  9992", "line2": "2 60133   0.0189 167.8316 0001022 146.8381  98.0979  1.00270540  5164"}}, "geometry": {"type": "Point", "coordinates": [-173.27963893746787, 0.0018423170463316692]}}, {"type": "Feature", "properties": {"norad_id": 65815, "name": "FENGYUN 3H", "group": "weather", "lat": -3.4410648945808817, "lon": -65.57295357383173, "alt_km": 829.1804049630946, "timestamp": "2025-12-20T11:30:28.014107+00:00", "meta": {"OBJECT_NAME": "FENGYUN 3H", "OBJECT_ID": "2025-219A", "EPOCH": "2025-12-20T03:04:05.160000", "MEAN_MOTION": 14.19906496, "ECCENTRICITY": 7.31e-05, "INCLINATION": 98.6595, "RA_OF_ASC_NODE": 293.558, "ARG_OF_PERICENTER": 105.0613, "MEAN_ANOMALY": 255.0644, "EPHEMERIS_TYPE": 0, "CLASSIFICATION_TYPE": "U", "NORAD_CAT_ID": 65815, "ELEMENT_SET_NO": 999, "REV_AT_EPOCH": 1197, "BSTAR": 3.733e-05, "MEAN_MOTION_DOT": 3.6e-07, "MEAN_MOTION_DDOT": 0}, "tle": {"line1": "1 65815U 25219A   25354.12783750  .00000036  00000+0  37330-4 0  9994", "line2": "2 65815  98.6595 293.5580 0000731 105.0613 255.0644 14.19906496 11971"}}, "geometry": {"type": "Point", "coordinates": [-65.57295357383173, -3.4410648945808817]}}]}